ALOS-2                  
1 39766U 14029A   26191.81066769  .00000543  00000+0  79527-4 0  9994
2 39766  97.9220 288.6371 0001632  91.4921 268.6478 14.79475060655072
KAZEOSAT 2              
1 40010U 14033A   26191.80594314 -.00000013  00000+0  43418-5 0  9998
2 40010  97.5407  30.1695 0007099 236.5924 123.4613 14.85496676652468
HODOYOSHI-4             
1 40011U 14033B   26191.83666197  .00000313  00000+0  39502-4 0  9991
2 40011  97.5464  15.5196 0022331 224.9005 135.0407 14.88180998652327
DEIMOS-2                
1 40013U 14033D   26191.89650918  .00000222  00000+0  26082-4 0  9991
2 40013  97.5807  65.5499 0001005  83.7112 276.4222 14.93789277641263
HODOYOSHI-3             
1 40015U 14033F   26191.42517213  .00000607  00000+0  75972-4 0  9991
2 40015  97.6440 353.5338 0031312 278.3892  81.3774 14.85431636651071
SPOT 7                  
1 40053U 14034A   26191.81012970  .00000068  00000+0  23187-4 0  9999
2 40053  98.0620 253.6920 0001551  96.4979 263.6399 14.60978069640583
SKYSAT-B                
1 40072U 14037D   26190.44965851  .00000906  00000+0  10519-3 0  9991
2 40072  98.3850 150.6859 0005112 191.8576 168.2520 14.88083411649278
WORLDVIEW-3 (WV-3)      
1 40115U 14048A   26191.81755888  .00000395  00000+0  52517-4 0  9997
2 40115  97.8558 266.3236 0000958 161.3791 198.7459 14.85059928645417
GAOFEN-2                
1 40118U 14049A   26191.82483436  .00000486  00000+0  69683-4 0  9992
2 40118  98.0100 256.0084 0007963 146.9325 213.2386 14.80925601642737
YAOGAN-21               
1 40143U 14053A   26191.89156666  .00004199  00000+0  16232-3 0  9990
2 40143  97.1472 231.1124 0008331  22.9885 337.1725 15.26721707658574
YAOGAN-22               
1 40275U 14063A   26191.38125657 -.00000011  00000+0  95321-4 0  9994
2 40275 100.7754 343.0425 0006790 135.2333 224.9327 13.15531516562864
ASNARO                  
1 40298U 14070A   26191.86475949  .00005416  00000+0  25596-3 0  9991
2 40298  97.3447 267.3420 0006885 100.0353 260.1659 15.19790183647608
YAOGAN-24               
1 40310U 14072A   26191.87458582  .00000598  00000+0  94249-4 0  9991
2 40310  98.1513 329.4145 0014239 183.3949 176.7165 14.76115700627214
CBERS 4                 
1 40336U 14079A   26191.87522412 -.00000179  00000+0 -47671-4 0  9994
2 40336  98.3523 247.9622 0000973  50.1598 309.9673 14.35514501607354
YAOGAN-26               
1 40362U 14088A   26191.85983282  .00011963  00000+0  22800-3 0  9994
2 40362  97.0650 191.5287 0002587   3.7059 356.4211 15.48317944641361
SMAP                    
1 40376U 15003A   26191.87469620  .00000224  00000+0  52428-4 0  9992
2 40376  98.1281 198.6342 0001565  95.8496 264.2885 14.63386837611082
KOMPSAT-3A              
1 40536U 15014A   26191.86486944  .00022369  00000+0  30895-3 0  9996
2 40536  97.6888 184.9796 0056621  90.8268 269.9474 15.55244919625495
SENTINEL-2A             
1 40697U 15028A   26191.85105014 -.00000165  00000+0 -46160-4 0  9999
2 40697  98.5678 266.3661 0001255  94.2283 265.9043 14.30812903577113
GAOFEN-8                
1 40701U 15030A   26191.83599240  .00017039  00000+0  34045-3 0  9998
2 40701  97.6903  26.6403 0009914 108.6628 251.5698 15.46837565615102
CARBONITE 1 (CBNT-1)    
1 40718U 15032D   26191.85537940  .00001853  00000+0  23025-3 0  9992
2 40718  97.6522   8.9333 0013490 211.9485 148.0913 14.83662237592853
YAOGAN-27               
1 40878U 15040A   26191.82306911 -.00000444  00000+0 -10587-2 0  9992
2 40878 100.1167 177.1808 0008413 154.8583 205.2942 13.16070437520774
GAOFEN-9 01             
1 40894U 15047A   26191.88183971  .00000593  00000+0  78886-4 0  9993
2 40894  97.6271 226.4991 0028682  63.9878 296.4285 14.82929887583706
YAOGAN-28               
1 41026U 15064A   26191.83929582  .00004264  00000+0  15981-3 0  9996
2 41026  97.3096 329.6272 0012037 106.4677 253.7886 15.27724078594295
YAOGAN-29               
1 41038U 15069A   26191.85895495  .00000285  00000+0  41575-4 0  9999
2 41038  98.0028 220.5280 0001112  20.8797 339.2462 14.83105154574133
KENT RIDGE 1            
1 41167U 15077B   26190.95148001  .00002977  00000+0  90645-4 0  9997
2 41167  14.9795  96.6661 0008227 201.1244 158.8739 15.23266301584572
GAOFEN-4                
1 41194U 15083A   26191.87299843 -.00000326  00000+0  00000+0 0  9995
2 41194   0.4148  83.8744 0004450 120.3715 144.5137  1.00269229 38764
JASON-3                 
1 41240U 16002A   26191.84742316 -.00000052  00000+0  39304-4 0  9994
2 41240  66.0417  76.0935 0008227 271.3034  88.7043 12.87628379490293
SENTINEL-3A             
1 41335U 16011A   26191.85033198  .00000036  00000+0  33084-4 0  9991
2 41335  98.6239 258.8929 0001393  91.4289 268.7051 14.26738982541433
ZIYUAN 3-02 (ZY 3-02)   
1 41556U 16033A   26191.86877980  .00003253  00000+0  14776-3 0  9996
2 41556  97.3831 267.1874 0013629 200.2475 159.8222 15.21408006561581
CARTOSAT-2C             
1 41599U 16040A   26191.83763161  .00002545  00000+0  12391-3 0  9997
2 41599  97.4476 251.4888 0009850  58.0569 302.1622 15.19243195557304
SKYSAT-C1               
1 41601U 16040C   26190.35925114  .00006902  00000+0  19474-3 0  9995
2 41601  96.9561 220.8806 0000919   6.2368 353.8888 15.36681886561276
