OBJECT_NAME,OBJECT_ID,EPOCH,MEAN_MOTION,ECCENTRICITY,INCLINATION,RA_OF_ASC_NODE,ARG_OF_PERICENTER,MEAN_ANOMALY,EPHEMERIS_TYPE,CLASSIFICATION_TYPE,NORAD_CAT_ID,ELEMENT_SET_NO,REV_AT_EPOCH,BSTAR,MEAN_MOTION_DOT,MEAN_MOTION_DDOT
ALOS-2,2014-029A,2026-07-10T19:27:21.688416,14.79475060,.0001632,97.9220,288.6371,91.4921,268.6478,0,U,39766,999,65507,.79527E-4,.543E-5,0
KAZEOSAT 2,2014-033A,2026-07-10T19:20:33.487296,14.85496676,.0007099,97.5407,30.1695,236.5924,123.4613,0,U,40010,999,65246,.43418E-5,-.13E-6,0
HODOYOSHI-4,2014-033B,2026-07-10T20:04:47.594208,14.88180998,.0022331,97.5464,15.5196,224.9005,135.0407,0,U,40011,999,65232,.39502E-4,.313E-5,0
DEIMOS-2,2014-033D,2026-07-10T21:30:58.393152,14.93789277,.0001005,97.5807,65.5499,83.7112,276.4222,0,U,40013,999,64126,.26082E-4,.222E-5,0
HODOYOSHI-3,2014-033F,2026-07-10T10:12:14.872032,14.85431636,.00313125,97.6440,353.5338,278.3892,81.3774,0,U,40015,999,65107,.75972489E-4,.607E-5,0
SPOT 7,2014-034A,2026-07-10T19:26:35.206080,14.60978069,.0001551,98.0620,253.6920,96.4979,263.6399,0,U,40053,999,64058,.23187E-4,.68E-6,0
SKYSAT-B,2014-037D,2026-07-09T10:47:30.495264,14.88083411,.00051123,98.3850,150.6859,191.8576,168.2520,0,U,40072,999,64927,.10518908E-3,.906E-5,0
WORLDVIEW-3 (WV-3),2014-048A,2026-07-10T19:37:17.087232,14.85059928,.0000958,97.8558,266.3236,161.3791,198.7459,0,U,40115,999,64541,.52517E-4,.395E-5,0
GAOFEN-2,2014-049A,2026-07-10T19:47:45.688704,14.80925601,.0007963,98.0100,256.0084,146.9325,213.2386,0,U,40118,999,64273,.69683E-4,.486E-5,0
YAOGAN-21,2014-053A,2026-07-10T21:23:51.359424,15.26721707,.0008331,97.1472,231.1124,22.9885,337.1725,0,U,40143,999,65857,.16232E-3,.4199E-4,0
YAOGAN-22,2014-063A,2026-07-10T09:09:00.567648,13.15531516,.00067907,100.7754,343.0425,135.2333,224.9327,0,U,40275,999,56286,.95321425E-4,-.11E-6,0
ASNARO,2014-070A,2026-07-10T20:45:15.219936,15.19790183,.0006885,97.3447,267.3420,100.0353,260.1659,0,U,40298,999,64760,.25596E-3,.5416E-4,0
YAOGAN-24,2014-072A,2026-07-10T20:59:24.214848,14.76115700,.0014239,98.1513,329.4145,183.3949,176.7165,0,U,40310,999,62721,.94249E-4,.598E-5,0
CBERS 4,2014-079A,2026-07-10T21:00:19.363968,14.35514501,.0000973,98.3523,247.9622,50.1598,309.9673,0,U,40336,999,60735,-.47671E-4,-.179E-5,0
YAOGAN-26,2014-088A,2026-07-10T20:38:09.555648,15.48317944,.0002587,97.0650,191.5287,3.7059,356.4211,0,U,40362,999,64136,.228E-3,.11963E-3,0
SMAP,2015-003A,2026-07-10T20:59:33.751680,14.63386837,.0001565,98.1281,198.6342,95.8496,264.2885,0,U,40376,999,61108,.52428E-4,.224E-5,0
KOMPSAT-3A,2015-014A,2026-07-10T20:45:24.719616,15.55244919,.0056621,97.6888,184.9796,90.8268,269.9474,0,U,40536,999,62549,.30895E-3,.22369E-3,0
SENTINEL-2A,2015-028A,2026-07-10T20:25:30.732096,14.30812903,.0001255,98.5678,266.3661,94.2283,265.9043,0,U,40697,999,57711,-.4616E-4,-.165E-5,0
GAOFEN-8,2015-030A,2026-07-10T20:03:49.743360,15.46837565,.0009914,97.6903,26.6403,108.6628,251.5698,0,U,40701,999,61510,.34045E-3,.17039E-3,0
CARBONITE 1 (CBNT-1),2015-032D,2026-07-10T20:31:44.780160,14.83662237,.001349,97.6522,8.9333,211.9485,148.0913,0,U,40718,999,59285,.23025E-3,.1853E-4,0
YAOGAN-27,2015-040A,2026-07-10T19:45:13.171104,13.16070437,.0008413,100.1167,177.1808,154.8583,205.2942,0,U,40878,999,52077,-.10587E-2,-.444E-5,0
GAOFEN-9 01,2015-047A,2026-07-10T21:09:50.950944,14.82929887,.0028682,97.6271,226.4991,63.9878,296.4285,0,U,40894,999,58370,.78886E-4,.593E-5,0
YAOGAN-28,2015-064A,2026-07-10T20:08:35.158848,15.27724078,.0012037,97.3096,329.6272,106.4677,253.7886,0,U,41026,999,59429,.15981E-3,.4264E-4,0
YAOGAN-29,2015-069A,2026-07-10T20:36:53.707680,14.83105154,.0001112,98.0028,220.5280,20.8797,339.2462,0,U,41038,999,57413,.41575E-4,.285E-5,0
KENT RIDGE 1,2015-077B,2026-07-09T22:50:07.872864,15.23266301,.00082275,14.9795,96.6661,201.1244,158.8739,0,U,41167,999,58457,.90645004E-4,.2977E-4,0
GAOFEN-4,2015-083A,2026-07-10T20:57:07.064352,1.00269229,.000445,0.4148,83.8744,120.3715,144.5137,0,U,41194,999,3876,0,-.326E-5,0
JASON-3,2016-002A,2026-07-10T20:20:17.361024,12.87628379,.0008227,66.0417,76.0935,271.3034,88.7043,0,U,41240,999,49029,.39304E-4,-.52E-6,0
SENTINEL-3A,2016-011A,2026-07-10T20:24:28.683072,14.26738982,.0001393,98.6239,258.8929,91.4289,268.7051,0,U,41335,999,54143,.33084E-4,.36E-6,0
ZIYUAN 3-02 (ZY 3-02),2016-033A,2026-07-10T20:51:02.574720,15.21408006,.0013629,97.3831,267.1874,200.2475,159.8222,0,U,41556,999,56158,.14776E-3,.3253E-4,0
CARTOSAT-2C,2016-040A,2026-07-10T20:06:11.371104,15.19243195,.000985,97.4476,251.4888,58.0569,302.1622,0,U,41599,999,55730,.12391E-3,.2545E-4,0
SKYSAT-C1,2016-040C,2026-07-09T08:37:19.298496,15.36681886,.00009197,96.9561,220.8806,6.2368,353.8888,0,U,41601,999,56127,.19474005E-3,.6902E-4,0
